[{"OBJECT_NAME":"STARLINK-1577","OBJECT_ID":"2020-055AN","EPOCH":"2026-03-09T12:38:48.106752","MEAN_MOTION":15.30219657,"ECCENTRICITY":0.00013922,"INCLINATION":53.1613,"RA_OF_ASC_NODE":114.5871,"ARG_OF_PERICENTER":79.7271,"MEAN_ANOMALY":280.3887,"EPHEMERIS_TYPE":0,"CLASSIFICATION_TYPE":"U","NORAD_CAT_ID":46063,"ELEMENT_SET_NO":999,"REV_AT_EPOCH":30904,"BSTAR":0.00036799853,"MEAN_MOTION_DOT":0.00010562,"MEAN_MOTION_DDOT":0},{"OBJECT_NAME":"RESURS-P 5","OBJECT_ID":"2024-250A","EPOCH":"2026-03-09T23:31:56.908992","MEAN_MOTION":15.32839945,"ECCENTRICITY":0.00026027,"INCLINATION":97.276,"RA_OF_ASC_NODE":355.9792,"ARG_OF_PERICENTER":63.1234,"MEAN_ANOMALY":297.0274,"EPHEMERIS_TYPE":0,"CLASSIFICATION_TYPE":"U","NORAD_CAT_ID":62430,"ELEMENT_SET_NO":999,"REV_AT_EPOCH":6735,"BSTAR":0.00015600887,"MEAN_MOTION_DOT":4.871e-5,"MEAN_MOTION_DDOT":0}]
